{"type": "FeatureCollection", "features": [ {"type": "Feature", "properties": {"norad_id": 40701, "name": "GAOFEN-8", "group": "resource", "lat": 51.96437036389115, "lon": 10.027694613804893, "alt_km": 437.91029696079113, "timestamp": "2025-12-27T05:29:38.851405+00:00", "meta": {"OBJECT_NAME": "GAOFEN-8", "OBJECT_ID": "2015-030A", "EPOCH": "2025-12-26T22:42:08.417664", "MEAN_MOTION": 15.39075853, "ECCENTRICITY": 0.00115541, "INCLINATION": 97.6903, "RA_OF_ASC_NODE": 179.7839, "ARG_OF_PERICENTER": 89.0982, "MEAN_ANOMALY": 271.1586, "EPHEMERIS_TYPE": 0, "CLASSIFICATION_TYPE": "U", "NORAD_CAT_ID": 40701, "ELEMENT_SET_NO": 999, "REV_AT_EPOCH": 58489, "BSTAR": 0.00049236798, "MEAN_MOTION_DOT": 0.00019038, "MEAN_MOTION_DDOT": 0}, "tle": {"line1": "1 40701U 15030A   25360.94593076  .00019038  00000+0  49237-3 0  9998", "line2": "2 40701  97.6903 179.7839 0011554  89.0982 271.1586 15.39075853584894"}}, "geometry": {"type": "Point", "coordinates": [10.027694613804893, 51.96437036389115]}}, {"type": "Feature", "properties": {"norad_id": 40718, "name": "CARBONITE 1 (CBNT-1)", "group": "resource", "lat": 20.592644346791435, "lon": 178.74485875388325, "alt_km": 624.8046384241688, "timestamp": "2025-12-27T05:29:38.851415+00:00", "meta": {"OBJECT_NAME": "CARBONITE 1 (CBNT-1)", "OBJECT_ID": "2015-032D", "EPOCH": "2025-12-26T22:55:20.444736", "MEAN_MOTION": 14.8281365, "ECCENTRICITY": 0.00153898, "INCLINATION": 97.6407, "RA_OF_ASC_NODE": 181.3743, "ARG_OF_PERICENTER": 135.6419, "MEAN_ANOMALY": 224.6031, "EPHEMERIS_TYPE": 0, "CLASSIFICATION_TYPE": "U", "NORAD_CAT_ID": 40718, "ELEMENT_SET_NO": 999, "REV_AT_EPOCH": 56381, "BSTAR": 0.00052142071, "MEAN_MOTION_DOT": 4.177e-05, "MEAN_MOTION_DDOT": 0}, "tle": {"line1": "1 40718U 15032D   25360.95509774  .00004177  00000+0  52142-3 0  9998", "line2": "2 40718  97.6407 181.3743 0015389 135.6419 224.6031 14.82813650563816"}}, "geometry": {"type": "Point", "coordinates": [178.74485875388325, 20.592644346791435]}}, {"type": "Feature", "properties": {"norad_id": 40878, "name": "YAOGAN-27", "group": "resource", "lat": 36.60052348187528, "lon": -17.414464730314375, "alt_km": 1201.843327684467, "timestamp": "2025-12-27T05:29:38.851426+00:00", "meta": {"OBJECT_NAME": "YAOGAN-27", "OBJECT_ID": "2015-040A", "EPOCH": "2025-12-26T23:49:53.912640", "MEAN_MOTION": 13.16059981, "ECCENTRICITY": 0.00075948, "INCLINATION": 100.1026, "RA_OF_ASC_NODE": 349.9687, "ARG_OF_PERICENTER": 251.3279, "MEAN_ANOMALY": 108.701, "EPHEMERIS_TYPE": 0, "CLASSIFICATION_TYPE": "U", "NORAD_CAT_ID": 40878, "ELEMENT_SET_NO": 999, "REV_AT_EPOCH": 49501, "BSTAR": -0.0011290562, "MEAN_MOTION_DOT": -4.71e-06, "MEAN_MOTION_DDOT": 0}, "tle": {"line1": "1 40878U 15040A   25360.99298510 -.00000471  00000+0 -11291-2 0  9995", "line2": "2 40878 100.1026 349.9687 0007594 251.3279 108.7010 13.16059981495018"}}, "geometry": {"type": "Point", "coordinates": [-17.414464730314375, 36.60052348187528]}}, {"type": "Feature", "properties": {"norad_id": 40894, "name": "GAOFEN-9 01", "group": "resource", "lat": -74.09138594121102, "lon": 67.70401197406495, "alt_km": 620.2749974855669, "timestamp": "2025-12-27T05:29:38.851436+00:00", "meta": {"OBJECT_NAME": "GAOFEN-9 01", "OBJECT_ID": "2015-047A", "EPOCH": "2025-12-26T23:21:19.145664", "MEAN_MOTION": 14.82457738, "ECCENTRICITY": 0.00272228, "INCLINATION": 97.6525, "RA_OF_ASC_NODE": 39.3128, "ARG_OF_PERICENTER": 348.0882, "MEAN_ANOMALY": 11.9685, "EPHEMERIS_TYPE": 0, "CLASSIFICATION_TYPE": "U", "NORAD_CAT_ID": 40894, "ELEMENT_SET_NO": 999, "REV_AT_EPOCH": 55467, "BSTAR": 0.00017564179, "MEAN_MOTION_DOT": 1.366e-05, "MEAN_MOTION_DDOT": 0}, "tle": {"line1": "1 40894U 15047A   25360.97313826  .00001366  00000+0  17564-3 0  9998", "line2": "2 40894  97.6525  39.3128 0027222 348.0882  11.9685 14.82457738554671"}}, "geometry": {"type": "Point", "coordinates": [67.70401197406495, -74.09138594121102]}}, {"type": "Feature", "properties": {"norad_id": 41026, "name": "YAOGAN-28", "group": "resource", "lat": 73.9719634841102, "lon": -14.956064093030042, "alt_km": 477.0651842101124, "timestamp": "2025-12-27T05:29:38.851449+00:00", "meta": {"OBJECT_NAME": "YAOGAN-28", "OBJECT_ID": "2015-064A", "EPOCH": "2025-12-26T22:44:18.154176", "MEAN_MOTION": 15.24580395, "ECCENTRICITY": 0.00126373, "INCLINATION": 97.2815, "RA_OF_ASC_NODE": 138.341, "ARG_OF_PERICENTER": 81.0065, "MEAN_ANOMALY": 279.2603, "EPHEMERIS_TYPE": 0, "CLASSIFICATION_TYPE": "U", "NORAD_CAT_ID": 41026, "ELEMENT_SET_NO": 999, "REV_AT_EPOCH": 56441, "BSTAR": 0.00038532163, "MEAN_MOTION_DOT": 9.45e-05, "MEAN_MOTION_DDOT": 0}, "tle": {"line1": "1 41026U 15064A   25360.94743234  .00009450  00000+0  38532-3 0  9992", "line2": "2 41026  97.2815 138.3410 0012637  81.0065 279.2603 15.24580395564417"}}, "geometry": {"type": "Point", "coordinates": [-14.956064093030042, 73.9719634841102]}}, {"type": "Feature", "properties": {"norad_id": 41038, "name": "YAOGAN-29", "group": "resource", "lat": -16.00270360753142, "lon": -157.87170677243918, "alt_km": 624.4757781056678, "timestamp": "2025-12-27T05:29:38.851459+00:00", "meta": {"OBJECT_NAME": "YAOGAN-29", "OBJECT_ID": "2015-069A", "EPOCH": "2025-12-26T23:45:16.231680", "MEAN_MOTION": 14.82897791, "ECCENTRICITY": 0.00010154, "INCLINATION": 98.0209, "RA_OF_ASC_NODE": 24.2061, "ARG_OF_PERICENTER": 159.0544, "MEAN_ANOMALY": 201.0711, "EPHEMERIS_TYPE": 0, "CLASSIFICATION_TYPE": "U", "NORAD_CAT_ID": 41038, "ELEMENT_SET_NO": 999, "REV_AT_EPOCH": 54510, "BSTAR": 4.2178401e-05, "MEAN_MOTION_DOT": 2.88e-06, "MEAN_MOTION_DDOT": 0}, "tle": {"line1": "1 41038U 15069A   25360.98977120  .00000288  00000+0  42178-4 0  9999", "line2": "2 41038  98.0209  24.2061 0001015 159.0544 201.0711 14.82897791545109"}}, "geometry": {"type": "Point", "coordinates": [-157.87170677243918, -16.00270360753142]}}, {"type": "Feature", "properties": {"norad_id": 41167, "name": "KENT RIDGE 1", "group": "resource", "lat": -3.4601370918096745, "lon": -63.31056217088501, "alt_km": 502.85473644306876, "timestamp": "2025-12-27T05:29:38.851469+00:00", "meta": {"OBJECT_NAME": "KENT RIDGE 1", "OBJECT_ID": "2015-077B", "EPOCH": "2025-12-26T22:21:21.398688", "MEAN_MOTION": 15.21743128, "ECCENTRICITY": 0.00085273, "INCLINATION": 14.9792, "RA_OF_ASC_NODE": 105.8239, "ARG_OF_PERICENTER": 331.0402, "MEAN_ANOMALY": 28.9446, "EPHEMERIS_TYPE": 0, "CLASSIFICATION_TYPE": "U", "NORAD_CAT_ID": 41167, "ELEMENT_SET_NO": 999, "REV_AT_EPOCH": 55480, "BSTAR": 0.00017735093, "MEAN_MOTION_DOT": 4.899e-05, "MEAN_MOTION_DDOT": 0}, "tle": {"line1": "1 41167U 15077B   25360.93149767  .00004899  00000+0  17735-3 0  9996", "line2": "2 41167  14.9792 105.8239 0008527 331.0402  28.9446 15.21743128554805"}}, "geometry": {"type": "Point", "coordinates": [-63.31056217088501, -3.4601370918096745]}}, {"type": "Feature", "properties": {"norad_id": 41194, "name": "GAOFEN-4", "group": "resource", "lat": -0.09507369283811064, "lon": -75.90876478889467, "alt_km": 35790.474054778904, "timestamp": "2025-12-27T05:29:38.851482+00:00", "meta": {"OBJECT_NAME": "GAOFEN-4", "OBJECT_ID": "2015-083A", "EPOCH": "2025-12-26T22:05:51.468576", "MEAN_MOTION": 1.00268941, "ECCENTRICITY": 0.00028182, "INCLINATION": 0.2043, "RA_OF_ASC_NODE": 82.0154, "ARG_OF_PERICENTER": 94.7238, "MEAN_ANOMALY": 356.0806, "EPHEMERIS_TYPE": 0, "CLASSIFICATION_TYPE": "U", "NORAD_CAT_ID": 41194, "ELEMENT_SET_NO": 999, "REV_AT_EPOCH": 3680, "BSTAR": 0, "MEAN_MOTION_DOT": -3.12e-06, "MEAN_MOTION_DDOT": 0}, "tle": {"line1": "1 41194U 15083A   25360.92073459 -.00000312  00000+0  00000+0 0  9996", "line2": "2 41194   0.2043  82.0154 0002818  94.7238 356.0806  1.00268941 36808"}}, "geometry": {"type": "Point", "coordinates": [-75.90876478889467, -0.09507369283811064]}}, {"type": "Feature", "properties": {"norad_id": 41240, "name": "JASON-3", "group": "resource", "lat": 28.22238528141747, "lon": -66.44321918053652, "alt_km": 1311.7449956856308, "timestamp": "2025-12-27T05:29:38.851493+00:00", "meta": {"OBJECT_NAME": "JASON-3", "OBJECT_ID": "2016-002A", "EPOCH": "2025-12-26T21:16:02.332704", "MEAN_MOTION": 12.87627194, "ECCENTRICITY": 0.00073336, "INCLINATION": 66.0408, "RA_OF_ASC_NODE": 128.0829, "ARG_OF_PERICENTER": 271.6823, "MEAN_ANOMALY": 88.3355, "EPHEMERIS_TYPE": 0, "CLASSIFICATION_TYPE": "U", "NORAD_CAT_ID": 41240, "ELEMENT_SET_NO": 999, "REV_AT_EPOCH": 46506, "BSTAR": 0.00017905709, "MEAN_MOTION_DOT": -1.7e-07, "MEAN_MOTION_DDOT": 0}, "tle": {"line1": "1 41240U 16002A   25360.88613811 -.00000017  00000+0  17906-3 0  9996", "line2": "2 41240  66.0408 128.0829 0007333 271.6823  88.3355 12.87627194465062"}}, "geometry": {"type": "Point", "coordinates": [-66.44321918053652, 28.22238528141747]}}, {"type": "Feature", "properties": {"norad_id": 41335, "name": "SENTINEL-3A", "group": "resource", "lat": -30.541665965769692, "lon": -119.10163703237286, "alt_km": 808.8539096962795, "timestamp": "2025-12-27T05:29:38.851503+00:00", "meta": {"OBJECT_NAME": "SENTINEL-3A", "OBJECT_ID": "2016-011A", "EPOCH": "2025-12-26T23:27:35.088480", "MEAN_MOTION": 14.2673624, "ECCENTRICITY": 8.877e-05, "INCLINATION": 98.6296, "RA_OF_ASC_NODE": 65.7912, "ARG_OF_PERICENTER": 97.9697, "MEAN_ANOMALY": 262.1584, "EPHEMERIS_TYPE": 0, "CLASSIFICATION_TYPE": "U", "NORAD_CAT_ID": 41335, "ELEMENT_SET_NO": 999, "REV_AT_EPOCH": 51350, "BSTAR": 8.4117411e-05, "MEAN_MOTION_DOT": 1.6e-06, "MEAN_MOTION_DDOT": 0}, "tle": {"line1": "1 41335U 16011A   25360.97748945  .00000160  00000+0  84117-4 0  9995", "line2": "2 41335  98.6296  65.7912 0000887  97.9697 262.1584 14.26736240513505"}}, "geometry": {"type": "Point", "coordinates": [-119.10163703237286, -30.541665965769692]}}]}